TRITON-1                
1 39427U 13066M   26165.59435914  .00002208  00000+0  26897-3 0  9997
2 39427  97.8256  75.4604 0088380 242.4889 116.7322 14.81700245673701
GOMX-1                  
1 39430U 13066Q   26165.59841078  .00002505  00000+0  37875-3 0  9991
2 39430  97.6484   6.2252 0130209  85.7861 275.8214 14.69453911669537
CUBEBUG-2 (LO-74)       
1 39440U 13066AA  26165.58468701  .00004184  00000+0  38757-3 0  9994
2 39440  97.8903 114.5518 0058575  37.4286 323.0990 14.93741894676604
NEE-02 KRYSAOR          
1 39441U 13066AB  26165.58418624  .00002324  00000+0  25763-3 0  9991
2 39441  97.8892 104.8174 0067699  78.5405 282.3403 14.86608022675813
FUNCUBE-1 (AO-73)       
1 39444U 13066AE  26165.47123696  .00006880  00000+0  42769-3 0  9990
2 39444  97.8269 136.8603 0035410 210.5774 149.3391 15.09460207679256
UWE-3                   
1 39446U 13066AG  26165.40834477  .00004185  00000+0  36061-3 0  9995
2 39446  97.8691 121.4633 0048023 330.3951  29.4552 14.97004771677163
SMDC ONE 2.4            
1 39469U 13072H   26165.23840066  .00009724  00000+0  37357-3 0  9992
2 39469 120.4930 340.6994 0144890  15.8830 344.6725 15.18132190117380
COSMOS 2488 (RODNIK-S 7)
1 39483U 13076A   26165.62294741  .00000057  00000+0  33927-3 0  9997
2 39483  82.4825 170.2924 0020828 100.5771 259.7656 12.42905926565572
COSMOS 2489 (RODNIK-S 8)
1 39484U 13076B   26165.59809373  .00000106  00000+0  69063-3 0  9992
2 39484  82.4863 171.6857 0022659 100.6045 259.7588 12.42879877565629
COSMOS 2490 (RODNIK-S 9)
1 39485U 13076C   26165.56997925  .00000098  00000+0  63754-3 0  9992
2 39485  82.4809 169.7719 0022695 115.5772 244.7657 12.42878448565553
KAZEOSAT 1              
1 39731U 14024A   26165.59323084  .00000423  00000+0  14177-3 0  9999
2 39731  98.3212 238.1048 0001396  74.6670 285.4674 14.42080035638184
COSMOS 2496 (RODNIK-S *)
1 39761U 14028A   26165.60800653 -.00000043  00000+0 -37999-3 0  9997
2 39761  82.4445 110.3463 0021322  84.1796 276.1714 12.42878395547191
COSMOS 2497 (RODNIK-S *)
1 39762U 14028B   26165.58332022  .00000071  00000+0  44291-3 0  9997
2 39762  82.4492 112.0504 0021893  79.4923 280.8621 12.42894427547194
COSMOS 2498 (RODNIK-S *)
1 39763U 14028C   26165.64159303  .00000016  00000+0  43360-4 0  9990
2 39763  82.4453 110.5021 0022612  78.9710 281.3911 12.42980228547235
HODOYOSHI-4             
1 40011U 14033B   26165.61342597  .00001872  00000+0  20812-3 0  9997
2 40011  97.5449 350.5606 0022587 317.5017  42.4451 14.88126313648420
UNISAT-6                
1 40012U 14033C   26165.37667054  .00002974  00000+0  32186-3 0  9990
2 40012  97.7871 318.1381 0046325  78.3311 282.3100 14.88233320645742
DEIMOS-2                
1 40013U 14033D   26165.57059926  .00000686  00000+0  69963-4 0  9998
2 40013  97.5840  40.1519 0001645  48.5267 311.6094 14.93717453637331
BUGSAT-1 (TITA)         
1 40014U 14033E   26165.59337236  .00006686  00000+0  35299-3 0  9994
2 40014  98.0435 257.9898 0027774 187.3961 172.6864 15.15564311655440
SAUDISAT 4              
1 40016U 14033G   26165.41367102  .00000620  00000+0  88182-4 0  9994
2 40016  97.7579 311.6443 0046219  82.7448 277.9015 14.79541441645662
APRIZESAT 9             
1 40018U 14033J   26165.35687851  .00000603  00000+0  96002-4 0  9996
2 40018  97.9057 298.6247 0065479 208.3420 151.4221 14.74211011643146
BRITE-CA1 (TORONTO)     
1 40020U 14033L   26165.32000207  .00000628  00000+0  10220-3 0  9994
2 40020  97.9735 294.3008 0077274 286.3637  72.9085 14.72673070641791
